{
  "type": "Feature",
  "properties": { "name": "安塞区" },
  "geometry": {
    "type": "Polygon",
    "coordinates": [[
      [109.150, 36.480],
      [109.180, 36.475],
      [109.210, 36.478],
      [109.240, 36.482],
      [109.270, 36.490],
      [109.295, 36.500],
      [109.305, 36.515],
      [109.310, 36.530],
      [109.308, 36.545],
      [109.305, 36.560],
      [109.300, 36.575],
      [109.290, 36.590],
      [109.275, 36.605],
      [109.255, 36.615],
      [109.235, 36.620],
      [109.215, 36.618],
      [109.195, 36.612],
      [109.175, 36.605],
      [109.160, 36.595],
      [109.150, 36.580],
      [109.145, 36.565],
      [109.143, 36.550],
      [109.145, 36.535],
      [109.148, 36.520],
      [109.150, 36.505],
      [109.150, 36.480]
    ]]
  }
}
